OBJECT_NAME,OBJECT_ID,EPOCH,MEAN_MOTION,ECCENTRICITY,INCLINATION,RA_OF_ASC_NODE,ARG_OF_PERICENTER,MEAN_ANOMALY,EPHEMERIS_TYPE,CLASSIFICATION_TYPE,NORAD_CAT_ID,ELEMENT_SET_NO,REV_AT_EPOCH,BSTAR,MEAN_MOTION_DOT,MEAN_MOTION_DDOT
STARLINK-11686 [DTC],2025-119A,2026-06-08T01:20:21.535584,15.70899373,.00027575,43.0003,24.7185,262.2748,97.7806,0,U,64233,999,5945,.16250798E-2,.214077E-2,0
STARLINK-11682 [DTC],2025-119B,2026-06-07T16:32:37.570272,15.71049575,.00031438,42.9993,27.1361,241.1197,118.9355,0,U,64234,999,5939,.13199557E-2,.174062E-2,0
STARLINK-11675 [DTC],2025-119C,2026-06-07T23:24:33.156864,15.70906944,.00024391,43.0018,24.9621,276.5827,83.4763,0,U,64235,999,5944,.14015733E-2,.183952E-2,0
STARLINK-11691 [DTC],2025-119D,2026-06-07T23:01:36.924096,15.70855807,.00017249,43.0001,24.8350,275.7651,84.3020,0,U,64236,999,5944,.50259631E-3,.64588E-3,0
STARLINK-11670 [DTC],2025-119E,2026-06-07T22:15:55.843488,15.70929774,.00013046,43.0017,25.4725,232.6452,127.4297,0,U,64237,999,5943,.12363672E-2,.161931E-2,0
STARLINK-11708 [DTC],2025-119F,2026-06-07T22:23:34.444320,15.70936615,.00012832,42.9982,25.5135,260.4902,99.5820,0,U,64238,999,5943,.19764916E-2,.262396E-2,0
STARLINK-11683 [DTC],2025-119G,2026-06-08T18:36:36.637056,15.70907899,.0001057,42.9971,19.7662,216.0771,144.0025,0,U,64239,999,5957,.14186E-2,.186246E-2,0
STARLINK-11684 [DTC],2025-119H,2026-06-07T22:00:38.183040,15.70917279,.00021201,43.0004,25.3868,244.7213,115.3435,0,U,64240,999,5943,.15283897E-2,.201139E-2,0
STARLINK-11689 [DTC],2025-119J,2026-06-07T21:45:20.909664,15.70958905,.0002087,42.9991,25.3022,273.4012,86.6617,0,U,64241,999,5943,.17962344E-2,.237941E-2,0
STARLINK-11690 [DTC],2025-119K,2026-06-08T17:27:58.520160,15.71052258,.0001466,42.9996,20.2789,242.4933,117.5786,0,U,64242,999,5956,.16448E-2,.218172E-2,0
STARLINK-11694 [DTC],2025-119L,2026-06-08T20:00:03.000384,15.72319730,.0004359,42.9984,20.1497,267.4875,123.4900,0,U,64243,999,603,.75244E-4,.9834E-4,0
STARLINK-11710 [DTC],2025-119M,2026-06-07T16:02:02.656320,15.70873503,.00026491,43.0011,26.9601,254.6705,105.3870,0,U,64244,999,5939,.1136636E-2,.148246E-2,0
STARLINK-11704 [DTC],2025-119N,2026-06-07T08:00:04.000032,15.70909801,.00020904,43.0009,28.5296,250.7606,194.5661,0,U,64245,999,584,-.11664108E-2,-.147933E-2,0
STARLINK-34203,2025-119P,2026-06-07T06:58:16.394592,15.27595934,.0000229,42.9984,160.9449,226.4226,133.6607,0,U,64246,999,5788,.85266E-3,.23287E-3,0
STARLINK-33865,2025-119Q,2026-06-07T06:36:03.888000,15.27589264,.0003505,43.0006,160.8227,276.7876,83.2577,0,U,64247,999,5784,.64959E-3,.17663E-3,0
STARLINK-34234,2025-119R,2026-06-07T16:38:00.460896,15.27608524,.00023204,42.9926,158.7955,278.5171,81.5417,0,U,64248,999,5793,.88381162E-3,.2416E-3,0
STARLINK-34256,2025-119S,2026-06-06T07:14:49.055424,15.27597330,.0001316,42.9991,166.4194,276.5065,83.5637,0,U,64249,999,5772,.80464438E-3,.21958E-3,0
STARLINK-34229,2025-119T,2026-06-07T17:03:54.826272,15.27593870,.0002226,43.0004,158.9469,263.8913,96.1685,0,U,64250,999,5793,.97791586E-3,.26758E-3,0
STARLINK-34224,2025-119U,2026-06-07T06:41:37.018752,15.27599619,.000206,43.0014,160.8549,272.2549,87.8066,0,U,64251,999,5787,.83442E-3,.22784E-3,0
STARLINK-34215,2025-119V,2026-06-07T16:32:28.068864,15.27579681,.00027217,42.9906,158.7698,279.1436,80.9107,0,U,64252,999,5793,.96986368E-3,.26524E-3,0
STARLINK-33893,2025-119W,2026-06-07T16:54:41.678784,15.27603741,.00025052,42.9959,158.8927,262.1299,97.9269,0,U,64253,999,5793,.1528477E-2,.42071E-3,0
STARLINK-34183,2025-119X,2026-06-07T17:09:27.250272,15.27587925,.00032914,43.0013,158.9663,261.8233,98.2245,0,U,64254,999,5793,.61718869E-3,.16766E-3,0
STARLINK-34211,2025-119Y,2026-06-07T17:15:00.935712,15.27596748,.00018968,43.0017,158.9990,266.2141,93.8494,0,U,64255,999,5793,.76070515E-3,.20741E-3,0
STARLINK-34329,2025-120A,2026-06-08T09:38:07.492704,15.34441706,.0001135,53.1585,52.5762,110.9994,249.1130,0,U,64256,999,5784,.10295E-2,.34615E-3,0
STARLINK-34352,2025-120B,2026-06-08T00:10:51.896640,15.30217340,.00013285,53.1579,57.2187,97.1939,262.9212,0,U,64257,999,5769,.91390212E-3,.2682E-3,0
STARLINK-34308,2025-120C,2026-06-08T09:47:13.416288,15.34384091,.0001683,53.1586,52.6135,82.3950,277.7244,0,U,64258,999,5779,.59824E-3,.1988E-3,0
STARLINK-34306,2025-120D,2026-06-08T00:03:13.936896,15.34385690,.00010108,53.1580,54.3484,83.7894,276.3223,0,U,64259,999,5773,.86423976E-3,.28923E-3,0
STARLINK-34281,2025-120E,2026-06-08T09:50:14.795808,15.34401074,.0001442,53.1593,52.6248,105.9307,254.1855,0,U,64260,999,5779,.96217E-3,.32273E-3,0
STARLINK-34297,2025-120F,2026-06-08T09:53:17.027232,15.34385810,.0001182,53.1579,52.6432,105.5988,254.5145,0,U,64261,999,5773,.71351E-3,.23796E-3,0
STARLINK-34325,2025-120G,2026-06-08T10:02:32.002080,15.30190292,.0001213,53.1591,55.5112,77.3638,282.7498,0,U,64262,999,5780,.70617E-3,.20607E-3,0
