STARLINK-11686 [DTC]    
1 64233U 25119A   26159.05580481  .00214077  00000+0  16251-2 0  9997
2 64233  43.0003  24.7185 0002757 262.2748  97.7806 15.70899373 59451
STARLINK-11682 [DTC]    
1 64234U 25119B   26158.68932373  .00174062  00000+0  13200-2 0  9997
2 64234  42.9993  27.1361 0003143 241.1197 118.9355 15.71049575 59395
STARLINK-11675 [DTC]    
1 64235U 25119C   26158.97538376  .00183952  00000+0  14016-2 0  9999
2 64235  43.0018  24.9621 0002439 276.5827  83.4763 15.70906944 59445
STARLINK-11691 [DTC]    
1 64236U 25119D   26158.95945514  .00064588  00000+0  50260-3 0  9999
2 64236  43.0001  24.8350 0001724 275.7651  84.3020 15.70855807 59445
STARLINK-11670 [DTC]    
1 64237U 25119E   26158.92772967  .00161931  00000+0  12364-2 0  9999
2 64237  43.0017  25.4725 0001304 232.6452 127.4297 15.70929774 59430
STARLINK-11708 [DTC]    
1 64238U 25119F   26158.93303755  .00262396  00000+0  19765-2 0  9995
2 64238  42.9982  25.5135 0001283 260.4902  99.5820 15.70936615 59434
STARLINK-11683 [DTC]    
1 64239U 25119G   26159.77542404  .00186246  00000+0  14186-2 0  9996
2 64239  42.9971  19.7662 0001057 216.0771 144.0025 15.70907899 59573
STARLINK-11684 [DTC]    
1 64240U 25119H   26158.91710860  .00201139  00000+0  15284-2 0  9995
2 64240  43.0004  25.3868 0002120 244.7213 115.3435 15.70917279 59430
STARLINK-11689 [DTC]    
1 64241U 25119J   26158.90649201  .00237941  00000+0  17962-2 0  9990
2 64241  42.9991  25.3022 0002087 273.4012  86.6617 15.70958905 59437
STARLINK-11690 [DTC]    
1 64242U 25119K   26159.72776065  .00218172  00000+0  16448-2 0  9994
2 64242  42.9996  20.2789 0001466 242.4933 117.5786 15.71052258 59567
STARLINK-11694 [DTC]    
1 64243U 25119L   26159.83336806  .00009834  00000+0  75244-4 0  9996
2 64243  42.9984  20.1497 0004359 267.4875 123.4900 15.72319730  6036
STARLINK-11710 [DTC]    
1 64244U 25119M   26158.66808630  .00148246  00000+0  11366-2 0  9990
2 64244  43.0011  26.9601 0002649 254.6705 105.3870 15.70873503 59394
STARLINK-11704 [DTC]    
1 64245U 25119N   26158.33337963 -.00147933  00000+0 -11664-2 0  9996
2 64245  43.0009  28.5296 0002090 250.7606 194.5661 15.70909801  5847
STARLINK-34203          
1 64246U 25119P   26158.29046753  .00023287  00000+0  85266-3 0  9999
2 64246  42.9984 160.9449 0000229 226.4226 133.6607 15.27595934 57884
STARLINK-33865          
1 64247U 25119Q   26158.27504500  .00017663  00000+0  64959-3 0  9994
2 64247  43.0006 160.8227 0003505 276.7876  83.2577 15.27589264 57845
STARLINK-34234          
1 64248U 25119R   26158.69306089  .00024160  00000+0  88381-3 0  9998
2 64248  42.9926 158.7955 0002320 278.5171  81.5417 15.27608524 57936
STARLINK-34256          
1 64249U 25119S   26157.30195666  .00021958  00000+0  80464-3 0  9999
2 64249  42.9991 166.4194 0001316 276.5065  83.5637 15.27597330 57729
STARLINK-34229          
1 64250U 25119T   26158.71105123  .00026758  00000+0  97792-3 0  9991
2 64250  43.0004 158.9469 0002226 263.8913  96.1685 15.27593870 57932
STARLINK-34224          
1 64251U 25119U   26158.27890068  .00022784  00000+0  83442-3 0  9994
2 64251  43.0014 160.8549 0002060 272.2549  87.8066 15.27599619 57870
STARLINK-34215          
1 64252U 25119V   26158.68921376  .00026524  00000+0  96986-3 0  9990
2 64252  42.9906 158.7698 0002721 279.1436  80.9107 15.27579681 57939
STARLINK-33893          
1 64253U 25119W   26158.70464906  .00042071  00000+0  15285-2 0  9992
2 64253  42.9959 158.8927 0002505 262.1299  97.9269 15.27603741 57935
STARLINK-34183          
1 64254U 25119X   26158.71489873  .00016766  00000+0  61719-3 0  9990
2 64254  43.0013 158.9663 0003291 261.8233  98.2245 15.27587925 57937
STARLINK-34211          
1 64255U 25119Y   26158.71876083  .00020741  00000+0  76071-3 0  9999
2 64255  43.0017 158.9990 0001896 266.2141  93.8494 15.27596748 57931
STARLINK-34329          
1 64256U 25120A   26159.40147562  .00034615  00000+0  10295-2 0  9992
2 64256  53.1585  52.5762 0001134 110.9994 249.1130 15.34441706 57840
STARLINK-34352          
1 64257U 25120B   26159.00754510  .00026820  00000+0  91390-3 0  9991
2 64257  53.1579  57.2187 0001328  97.1939 262.9212 15.30217340 57695
STARLINK-34308          
1 64258U 25120C   26159.40779417  .00019880  00000+0  59824-3 0  9993
2 64258  53.1586  52.6135 0001682  82.3950 277.7244 15.34384091 57790
STARLINK-34306          
1 64259U 25120D   26159.00224464  .00028923  00000+0  86424-3 0  9991
2 64259  53.1580  54.3484 0001010  83.7894 276.3223 15.34385690 57730
STARLINK-34281          
1 64260U 25120E   26159.40989348  .00032273  00000+0  96217-3 0  9990
2 64260  53.1593  52.6248 0001441 105.9307 254.1855 15.34401074 57795
STARLINK-34297          
1 64261U 25120F   26159.41200263  .00023796  00000+0  71351-3 0  9996
2 64261  53.1579  52.6432 0001182 105.5988 254.5145 15.34385810 57737
STARLINK-34325          
1 64262U 25120G   26159.41842595  .00020607  00000+0  70617-3 0  9999
2 64262  53.1591  55.5112 0001212  77.3638 282.7498 15.30190292 57807
